IRIDIUM 36 [-]          
1 24967U 97056C   24081.16208418  .00000862  00000+0  28626-3 0  9992
2 24967  86.4030   3.2331 0002320  82.6514 277.4947 14.36683474387156
IRIDIUM 39 [-]          
1 25042U 97069D   24080.96262107  .00001489  00000+0  39686-3 0  9997
2 25042  86.3918  45.2859 0019346  25.3964 334.8185 14.47764050383616
IRIDIUM 38 [-]          
1 25043U 97069E   24080.91854677  .00000953  00000+0  31430-3 0  9996
2 25043  86.3923  63.7393 0003608 113.8131 246.3445 14.37119640380839
IRIDIUM 42 [-]          
1 25077U 97077A   24081.21575159  .00000850  00000+0  28940-3 0  9999
2 25077  86.3918  69.2342 0002553 102.6329 257.5153 14.35431351376196
IRIDIUM 44 [-]          
1 25078U 97077B   24081.20169702  .00000986  00000+0  31172-3 0  9993
2 25078  86.3942  52.3719 0004082  82.5600 277.6063 14.39256339378552
IRIDIUM 45 [-]          
1 25104U 97082A   24081.00778417  .00022845  00000+0  13611-2 0  9991
2 25104  86.3696 263.5626 0166983 199.2138 160.2751 15.00021887383871
IRIDIUM 51 [-]          
1 25262U 98018A   24081.15400808  .00025989  00000+0  12878-2 0  9994
2 25262  86.3860 273.5742 0153896 145.8833 215.2414 15.07740429378358
